COSMOS 1953             
1 19210U 88050A   26062.73357009  .00011265  00000+0  40539-3 0  9992
2 19210  82.5118 164.2355 0012197 141.9070 218.3034 15.28394735 36870
SL-8 R/B                
1 19257U 88053B   26063.15803392  .00000352  00000+0  12260-3 0  9999
2 19257  74.0468 122.6631 0021301 302.7716  87.2948 14.38911993975804
COSMOS 1975             
1 19573U 88093A   26063.15848657  .00010836  00000+0  39509-3 0  9990
2 19573  82.5197 123.2376 0011678 182.4530 177.6654 15.27971980 18564
SL-14 R/B               
1 19574U 88093B   26063.07328735  .00000815  00000+0  90893-4 0  9992
2 19574  82.5294  47.3166 0022089  59.0596   8.8349 14.85648651   189
SL-16 R/B               
1 19650U 88102B   26062.68904779 -.00000015  00000+0  16652-4 0  9996
2 19650  71.0000 164.1221 0013579  10.7276 349.4134 14.16149412926048
INTERCOSMOS 24          
1 20261U 89080A   26063.16309438  .00000905  00000+0  26921-3 0  9993
2 20261  82.6032 108.0033 1186814 305.6605  43.9526 12.59548100666106
SL-14 R/B               
1 20262U 89080C   26062.79438839  .00000827  00000+0  24628-3 0  9995
2 20262  82.5972 176.9696 1230344 198.2211 157.0827 12.50484949659413
DELTA 1 R/B             
1 20323U 89089B   26063.10273682  .00000511  00000+0  13481-3 0  9996
2 20323  97.0709 271.4299 0070125 139.3712 221.2749 14.50658055894927
ARIANE 40 R/B           
1 20443U 90005H   26063.11525205  .00000383  00000+0  13533-3 0  9996
2 20443  98.3095 123.9425 0009506 215.8477 144.2075 14.39866277892004
DELTA 2 R/B(1)          
1 20453U 90008B   26062.79095829  .00089154  00000+0  10724-2 0  9998
2 20453  35.6039 213.5409 0086769 204.1361 155.5295 15.55064062925214
COSMOS 2058             
1 20465U 90010A   26063.02026070  .00005986  00000+0  35395-3 0  9996
2 20465  82.4666  53.0131 0009785   2.1639 357.9632 15.11260178941386
SL-14 R/B               
1 20466U 90010B   26063.08882359  .00000557  00000+0  64601-4 0  9995
2 20466  82.4992 272.6512 0018892 321.9134  38.0744 14.83563470927656
SL-14 R/B               
1 20511U 90018B   26062.89874168  .00000730  00000+0  88553-4 0  9996
2 20511  82.5192 228.5027 0017591 109.6435 250.6679 14.82137586921726
HST                     
1 20580U 90037B   26063.13533951  .00010319  00000+0  34382-3 0  9997
2 20580  28.4703  77.8870 0001725  70.3509 289.7272 15.29378725772469
SL-16 R/B               
1 20625U 90046B   26063.11254067 -.00000180  00000+0 -68151-4 0  9992
2 20625  71.0000 309.6278 0016154 307.0897  52.8748 14.15014486847604
COSMOS 2084             
1 20663U 90055A   26063.14307556  .00004266  00000+0  30711-3 0  9996
2 20663  62.7927 354.4944 0017963 188.7054 171.3737 15.05610742935483
SL-6 R/B(2)             
1 20666U 90055D   26062.98512900  .00002872  00000+0  22256-3 0  9997
2 20666  62.7818 273.2508 0023883 345.6258  14.4159 15.03562591937334
