[{"OBJECT_NAME":"COSMOS 1953","OBJECT_ID":"1988-050A","EPOCH":"2026-03-03T17:36:20.455776","MEAN_MOTION":15.28394735,"ECCENTRICITY":0.00121974,"INCLINATION":82.5118,"RA_OF_ASC_NODE":164.2355,"ARG_OF_PERICENTER":141.907,"MEAN_ANOMALY":218.3034,"EPHEMERIS_TYPE":0,"CLASSIFICATION_TYPE":"U","NORAD_CAT_ID":19210,"ELEMENT_SET_NO":999,"REV_AT_EPOCH":3687,"BSTAR":0.00040539309,"MEAN_MOTION_DOT":0.00011265,"MEAN_MOTION_DDOT":0},{"OBJECT_NAME":"SL-8 R/B","OBJECT_ID":"1988-053B","EPOCH":"2026-03-04T03:47:34.130688","MEAN_MOTION":14.38911993,"ECCENTRICITY":0.0021301,"INCLINATION":74.0468,"RA_OF_ASC_NODE":122.6631,"ARG_OF_PERICENTER":302.7716,"MEAN_ANOMALY":87.2948,"EPHEMERIS_TYPE":0,"CLASSIFICATION_TYPE":"U","NORAD_CAT_ID":19257,"ELEMENT_SET_NO":999,"REV_AT_EPOCH":97580,"BSTAR":0.0001226,"MEAN_MOTION_DOT":3.52e-6,"MEAN_MOTION_DDOT":0},{"OBJECT_NAME":"COSMOS 1975","OBJECT_ID":"1988-093A","EPOCH":"2026-03-04T03:48:13.239648","MEAN_MOTION":15.2797198,"ECCENTRICITY":0.0011678,"INCLINATION":82.5197,"RA_OF_ASC_NODE":123.2376,"ARG_OF_PERICENTER":182.453,"MEAN_ANOMALY":177.6654,"EPHEMERIS_TYPE":0,"CLASSIFICATION_TYPE":"U","NORAD_CAT_ID":19573,"ELEMENT_SET_NO":999,"REV_AT_EPOCH":1856,"BSTAR":0.00039509,"MEAN_MOTION_DOT":0.00010836,"MEAN_MOTION_DDOT":0},{"OBJECT_NAME":"SL-14 R/B","OBJECT_ID":"1988-093B","EPOCH":"2026-03-04T01:45:32.027040","MEAN_MOTION":14.85648651,"ECCENTRICITY":0.0022089,"INCLINATION":82.5294,"RA_OF_ASC_NODE":47.3166,"ARG_OF_PERICENTER":59.0596,"MEAN_ANOMALY":8.8349,"EPHEMERIS_TYPE":0,"CLASSIFICATION_TYPE":"U","NORAD_CAT_ID":19574,"ELEMENT_SET_NO":999,"REV_AT_EPOCH":18,"BSTAR":9.0893e-5,"MEAN_MOTION_DOT":8.15e-6,"MEAN_MOTION_DDOT":0},{"OBJECT_NAME":"SL-16 R/B","OBJECT_ID":"1988-102B","EPOCH":"2026-03-03T16:32:13.729056","MEAN_MOTION":14.16149412,"ECCENTRICITY":0.00135794,"INCLINATION":71,"RA_OF_ASC_NODE":164.1221,"ARG_OF_PERICENTER":10.7276,"MEAN_ANOMALY":349.4134,"EPHEMERIS_TYPE":0,"CLASSIFICATION_TYPE":"U","NORAD_CAT_ID":19650,"ELEMENT_SET_NO":999,"REV_AT_EPOCH":92604,"BSTAR":1.6651895e-5,"MEAN_MOTION_DOT":-1.5e-7,"MEAN_MOTION_DDOT":0},{"OBJECT_NAME":"INTERCOSMOS 24","OBJECT_ID":"1989-080A","EPOCH":"2026-03-04T03:54:51.354432","MEAN_MOTION":12.595481,"ECCENTRICITY":0.1186814,"INCLINATION":82.6032,"RA_OF_ASC_NODE":108.0033,"ARG_OF_PERICENTER":305.6605,"MEAN_ANOMALY":43.9526,"EPHEMERIS_TYPE":0,"CLASSIFICATION_TYPE":"U","NORAD_CAT_ID":20261,"ELEMENT_SET_NO":999,"REV_AT_EPOCH":66610,"BSTAR":0.00026921,"MEAN_MOTION_DOT":9.05e-6,"MEAN_MOTION_DDOT":0},{"OBJECT_NAME":"SL-14 R/B","OBJECT_ID":"1989-080C","EPOCH":"2026-03-03T19:03:55.156896","MEAN_MOTION":12.50484949,"ECCENTRICITY":0.1230344,"INCLINATION":82.5972,"RA_OF_ASC_NODE":176.9696,"ARG_OF_PERICENTER":198.2211,"MEAN_ANOMALY":157.0827,"EPHEMERIS_TYPE":0,"CLASSIFICATION_TYPE":"U","NORAD_CAT_ID":20262,"ELEMENT_SET_NO":999,"REV_AT_EPOCH":65941,"BSTAR":0.00024628,"MEAN_MOTION_DOT":8.27e-6,"MEAN_MOTION_DDOT":0},{"OBJECT_NAME":"DELTA 1 R/B","OBJECT_ID":"1989-089B","EPOCH":"2026-03-04T02:27:56.461248","MEAN_MOTION":14.50658055,"ECCENTRICITY":0.0070125,"INCLINATION":97.0709,"RA_OF_ASC_NODE":271.4299,"ARG_OF_PERICENTER":139.3712,"MEAN_ANOMALY":221.2749,"EPHEMERIS_TYPE":0,"CLASSIFICATION_TYPE":"U","NORAD_CAT_ID":20323,"ELEMENT_SET_NO":999,"REV_AT_EPOCH":89492,"BSTAR":0.00013481,"MEAN_MOTION_DOT":5.11e-6,"MEAN_MOTION_DDOT":0},{"OBJECT_NAME":"ARIANE 40 R/B","OBJECT_ID":"1990-005H","EPOCH":"2026-03-04T02:45:57.777120","MEAN_MOTION":14.39866277,"ECCENTRICITY":0.0009506,"INCLINATION":98.3095,"RA_OF_ASC_NODE":123.9425,"ARG_OF_PERICENTER":215.8477,"MEAN_ANOMALY":144.2075,"EPHEMERIS_TYPE":0,"CLASSIFICATION_TYPE":"U","NORAD_CAT_ID":20443,"ELEMENT_SET_NO":999,"REV_AT_EPOCH":89200,"BSTAR":0.00013533,"MEAN_MOTION_DOT":3.83e-6,"MEAN_MOTION_DDOT":0},{"OBJECT_NAME":"DELTA 2 R/B(1)","OBJECT_ID":"1990-008B","EPOCH":"2026-03-03T18:58:58.796256","MEAN_MOTION":15.55064062,"ECCENTRICITY":0.0086769,"INCLINATION":35.6039,"RA_OF_ASC_NODE":213.5409,"ARG_OF_PERICENTER":204.1361,"MEAN_ANOMALY":155.5295,"EPHEMERIS_TYPE":0,"CLASSIFICATION_TYPE":"U","NORAD_CAT_ID":20453,"ELEMENT_SET_NO":999,"REV_AT_EPOCH":92521,"BSTAR":0.0010724,"MEAN_MOTION_DOT":0.00089154,"MEAN_MOTION_DDOT":0},{"OBJECT_NAME":"COSMOS 2058","OBJECT_ID":"1990-010A","EPOCH":"2026-03-04T00:29:10.524480","MEAN_MOTION":15.11260178,"ECCENTRICITY":0.0009785,"INCLINATION":82.4666,"RA_OF_ASC_NODE":53.0131,"ARG_OF_PERICENTER":2.1639,"MEAN_ANOMALY":357.9632,"EPHEMERIS_TYPE":0,"CLASSIFICATION_TYPE":"U","NORAD_CAT_ID":20465,"ELEMENT_SET_NO":999,"REV_AT_EPOCH":94138,"BSTAR":0.00035395,"MEAN_MOTION_DOT":5.986e-5,"MEAN_MOTION_DDOT":0},{"OBJECT_NAME":"SL-14 R/B","OBJECT_ID":"1990-010B","EPOCH":"2026-03-04T02:07:54.358176","MEAN_MOTION":14.8356347,"ECCENTRICITY":0.0018892,"INCLINATION":82.4992,"RA_OF_ASC_NODE":272.6512,"ARG_OF_PERICENTER":321.9134,"MEAN_ANOMALY":38.0744,"EPHEMERIS_TYPE":0,"CLASSIFICATION_TYPE":"U","NORAD_CAT_ID":20466,"ELEMENT_SET_NO":999,"REV_AT_EPOCH":92765,"BSTAR":6.4601e-5,"MEAN_MOTION_DOT":5.57e-6,"MEAN_MOTION_DDOT":0},{"OBJECT_NAME":"SL-14 R/B","OBJECT_ID":"1990-018B","EPOCH":"2026-03-03T21:34:11.281152","MEAN_MOTION":14.82137586,"ECCENTRICITY":0.0017591,"INCLINATION":82.5192,"RA_OF_ASC_NODE":228.5027,"ARG_OF_PERICENTER":109.6435,"MEAN_ANOMALY":250.6679,"EPHEMERIS_TYPE":0,"CLASSIFICATION_TYPE":"U","NORAD_CAT_ID":20511,"ELEMENT_SET_NO":999,"REV_AT_EPOCH":92172,"BSTAR":8.8553e-5,"MEAN_MOTION_DOT":7.3e-6,"MEAN_MOTION_DDOT":0},{"OBJECT_NAME":"HST","OBJECT_ID":"1990-037B","EPOCH":"2026-03-04T03:14:53.333664","MEAN_MOTION":15.29378725,"ECCENTRICITY":0.0001725,"INCLINATION":28.4703,"RA_OF_ASC_NODE":77.887,"ARG_OF_PERICENTER":70.3509,"MEAN_ANOMALY":289.7272,"EPHEMERIS_TYPE":0,"CLASSIFICATION_TYPE":"U","NORAD_CAT_ID":20580,"ELEMENT_SET_NO":999,"REV_AT_EPOCH":77246,"BSTAR":0.00034382,"MEAN_MOTION_DOT":0.00010319,"MEAN_MOTION_DDOT":0},{"OBJECT_NAME":"SL-16 R/B","OBJECT_ID":"1990-046B","EPOCH":"2026-03-04T02:42:03.513888","MEAN_MOTION":14.15014486,"ECCENTRICITY":0.0016154,"INCLINATION":71,"RA_OF_ASC_NODE":309.6278,"ARG_OF_PERICENTER":307.0897,"MEAN_ANOMALY":52.8748,"EPHEMERIS_TYPE":0,"CLASSIFICATION_TYPE":"U","NORAD_CAT_ID":20625,"ELEMENT_SET_NO":999,"REV_AT_EPOCH":84760,"BSTAR":-6.8151e-5,"MEAN_MOTION_DOT":-1.8e-6,"MEAN_MOTION_DDOT":0},{"OBJECT_NAME":"COSMOS 2084","OBJECT_ID":"1990-055A","EPOCH":"2026-03-04T03:26:01.728384","MEAN_MOTION":15.05610742,"ECCENTRICITY":0.0017963,"INCLINATION":62.7927,"RA_OF_ASC_NODE":354.4944,"ARG_OF_PERICENTER":188.7054,"MEAN_ANOMALY":171.3737,"EPHEMERIS_TYPE":0,"CLASSIFICATION_TYPE":"U","NORAD_CAT_ID":20663,"ELEMENT_SET_NO":999,"REV_AT_EPOCH":93548,"BSTAR":0.00030711,"MEAN_MOTION_DOT":4.266e-5,"MEAN_MOTION_DDOT":0},{"OBJECT_NAME":"SL-6 R/B(2)","OBJECT_ID":"1990-055D","EPOCH":"2026-03-03T23:38:35.145600","MEAN_MOTION":15.03562591,"ECCENTRICITY":0.0023883,"INCLINATION":62.7818,"RA_OF_ASC_NODE":273.2508,"ARG_OF_PERICENTER":345.6258,"MEAN_ANOMALY":14.4159,"EPHEMERIS_TYPE":0,"CLASSIFICATION_TYPE":"U","NORAD_CAT_ID":20666,"ELEMENT_SET_NO":999,"REV_AT_EPOCH":93733,"BSTAR":0.00022256,"MEAN_MOTION_DOT":2.872e-5,"MEAN_MOTION_DDOT":0}]
